H1 CPF 01  gfz 2022 10 09 12  7822 tandemx   
H2 1003001  6202 36605    2022 10 09 12 59 42 2022 10 14 00 00 42   120 1 1  0 0 0
H9
10 0 59863   6462.000000  0    2005859.635   2197090.649  -6220455.814
10 0 59863   6582.000000  0    1675266.124   1402031.212  -6540204.903
10 0 59863   6702.000000  0    1301580.464    588848.450  -6745852.307
10 0 59863   6822.000000  0     891098.543   -227667.399  -6833860.686
10 0 59863   6942.000000  0     451001.651  -1032798.176  -6802717.963
10 0 59863   7062.000000  0     -10766.772  -1812156.441  -6652958.682
10 0 59863   7182.000000  0    -485640.082  -2551934.758  -6387156.144
10 0 59863   7302.000000  0    -964583.357  -3239146.117  -6009884.659
10 0 59863   7422.000000  0   -1438260.610  -3861849.812  -5527648.253
10 0 59863   7542.000000  0   -1897212.138  -4409359.331  -4948779.930
10 0 59863   7662.000000  0   -2332040.376  -4872431.023  -4283309.866
10 0 59863   7782.000000  0   -2733600.752  -5243427.881  -3542801.809
10 0 59863   7902.000000  0   -3093192.787  -5516454.344  -2740160.439
10 0 59863   8022.000000  0   -3402747.725  -5687459.935  -1889412.352
10 0 59863   8142.000000  0   -3655008.888  -5754308.665  -1005462.855
10 0 59863   8262.000000  0   -3843699.215  -5716810.987   -103832.052
10 0 59863   8382.000000  0   -3963670.970  -5576716.496    799623.671
10 0 59863   8502.000000  0   -4011034.225  -5337667.472   1688998.772
10 0 59863   8622.000000  0   -3983260.173  -5005113.297   2548628.225
10 0 59863   8742.000000  0   -3879256.323  -4586188.235   3363371.750
10 0 59863   8862.000000  0   -3699412.444  -4089556.955   4118887.244
10 0 59863   8982.000000  0   -3445615.664  -3525230.697   4801888.110
10 0 59863   9102.000000  0   -3121234.689  -2904358.823   5400377.829
10 0 59863   9222.000000  0   -2731074.343  -2239002.791   5903858.381
10 0 59863   9342.000000  0   -2281301.471  -1541897.774   6303510.446
10 0 59863   9462.000000  0   -1779344.256   -826205.324   6592344.183
10 0 59863   9582.000000  0   -1233764.800   -105261.014   6765315.354
10 0 59863   9702.000000  0    -654111.269    607673.598   6819405.429
10 0 59863   9822.000000  0     -50751.242   1299653.691   6753671.657
10 0 59863   9942.000000  0     565313.507   1958286.003   6569262.881
10 0 59863  10062.000000  0    1182647.389   2571950.916   6269400.316
10 0 59863  10182.000000  0    1789592.393   3130007.296   5859324.370
10 0 59863  10302.000000  0    2374487.581   3622979.245   5346209.216
10 0 59863  10422.000000  0    2925894.437   4042721.696   4739043.864
10 0 59863  10542.000000  0    3432823.249   4382559.767   4048478.896
10 0 59863  10662.000000  0    3884953.625   4637399.390   3286644.458
10 0 59863  10782.000000  0    4272850.258   4803810.427   2466940.471
10 0 59863  10902.000000  0    4588163.577   4880073.972   1603796.093
10 0 59863  11022.000000  0    4823809.060   4866195.790    712412.724
10 0 59863  11142.000000  0    4974127.428   4763885.867   -191511.186
10 0 59863  11262.000000  0    5035013.448   4576500.678  -1092066.873
10 0 59863  11382.000000  0    5004013.553   4308952.150  -1973423.084
10 0 59863  11502.000000  0    4880391.361   3967586.617  -2820111.326
10 0 59863  11622.000000  0    4665158.104   3560036.216  -3617302.612
10 0 59863  11742.000000  0    4361067.131   3095047.439  -4351069.344
10 0 59863  11862.000000  0    3972573.961   2582290.887  -5008627.028
10 0 59863  11982.000000  0    3505764.345   2032156.908  -5578551.466
10 0 59863  12102.000000  0    2968251.607   1455543.082  -6050968.914
10 0 59863  12222.000000  0    2369045.480    863638.024  -6417716.347
10 0 59863  12342.000000  0    1718396.895    267706.016  -6672470.189
10 0 59863  12462.000000  0    1027622.818   -321123.264  -6810844.772
10 0 59863  12582.000000  0     308910.649   -892058.603  -6830461.126
10 0 59863  12702.000000  0    -424893.353  -1434840.094  -6730981.435
10 0 59863  12822.000000  0   -1160507.254  -1939917.902  -6514114.185
10 0 59863  12942.000000  0   -1884448.307  -2398616.942  -6183589.024
10 0 59863  13062.000000  0   -2583274.504  -2803284.159  -5745098.923
10 0 59863  13182.000000  0   -3243829.557  -3147416.088  -5206212.769
10 0 59863  13302.000000  0   -3853490.232  -3425766.624  -4576257.196
10 0 59863  13422.000000  0   -4400409.818  -3634430.842  -3866165.590
10 0 59863  13542.000000  0   -4873752.545  -3770903.153  -3088298.091
10 0 59863  13662.000000  0   -5263914.902  -3834108.850  -2256233.337
10 0 59863  13782.000000  0   -5562727.765  -3824407.198  -1384534.305
10 0 59863  13902.000000  0   -5763633.911  -3743565.301   -488492.906
10 0 59863  14022.000000  0   -5861836.490  -3594703.294    416142.236
10 0 59863  14142.000000  0   -5854414.470  -3382211.973   1313449.684
10 0 59863  14262.000000  0   -5740399.851  -3111643.613   2187625.603
10 0 59863  14382.000000  0   -5520814.198  -2789578.330   3023271.166
10 0 59863  14502.000000  0   -5198665.678  -2423471.740   3805671.164
10 0 59863  14622.000000  0   -4778905.516  -2021485.864   4521059.876
10 0 59863  14742.000000  0   -4268344.738  -1592307.824   5156865.192
10 0 59863  14862.000000  0   -3675536.348  -1144963.248   5701927.750
10 0 59863  14982.000000  0   -3010625.373   -688627.150   6146694.542
10 0 59863  15102.000000  0   -2285167.697   -232435.174   6483382.691
10 0 59863  15222.000000  0   -1511922.245    214699.135   6706108.717
10 0 59863  15342.000000  0    -704623.312    644256.439   6810984.565
10 0 59863  15462.000000  0     122264.102   1048272.624   6796181.210
10 0 59863  15582.000000  0     953802.871   1419485.814   6661958.479
10 0 59863  15702.000000  0    1774852.852   1751467.205   6410660.770
10 0 59863  15822.000000  0    2570345.670   2038732.483   6046678.165
10 0 59863  15942.000000  0    3325561.522   2276833.021   5576375.271
10 0 59863  16062.000000  0    4026404.698   2462425.643   5007985.816
10 0 59863  16182.000000  0    4659670.228   2593319.747   4351474.174
10 0 59863  16302.000000  0    5213299.007   2668501.377   3618367.146
10 0 59863  16422.000000  0    5676618.284   2688132.141   2821553.143
10 0 59863  16542.000000  0    6040553.440   2653522.069   1975054.016
10 0 59863  16662.000000  0    6297814.143   2567079.988   1093776.358
10 0 59863  16782.000000  0    6443046.665   2432239.579    193242.166
10 0 59863  16902.000000  0    6472946.901   2253363.668   -710693.705
10 0 59863  17022.000000  0    6386330.330   2035628.687  -1602131.697
10 0 59863  17142.000000  0    6184162.061   1784894.205  -2465413.212
10 0 59863  17262.000000  0    5869544.368   1507559.443  -3285403.391
10 0 59863  17382.000000  0    5447659.923   1210409.822  -4047760.362
10 0 59863  17502.000000  0    4925674.255    900458.812  -4739186.452
10 0 59863  17622.000000  0    4312600.956    584789.617  -5347655.293
10 0 59863  17742.000000  0    3619135.468    270399.933  -5862612.952
10 0 59863  17862.000000  0    2857460.022    -35946.738  -6275151.344
10 0 59863  17982.000000  0    2041023.405   -327860.663  -6578151.075
10 0 59863  18102.000000  0    1184302.534   -599453.916  -6766392.586
10 0 59863  18222.000000  0     302547.861   -845454.785  -6836637.958
10 0 59863  18342.000000  0    -588484.404  -1061306.112  -6787679.451
10 0 59863  18462.000000  0   -1472806.470  -1243246.959  -6620357.684
10 0 59863  18582.000000  0   -2334479.453  -1388376.733  -6337549.361
10 0 59863  18702.000000  0   -3157894.231  -1494700.525  -5944121.967
10 0 59863  18822.000000  0   -3928048.519  -1561155.584  -5446859.676
10 0 59863  18942.000000  0   -4630820.616  -1587618.748  -4854358.624
10 0 59863  19062.000000  0   -5253231.775  -1574893.677  -4176889.318
10 0 59863  19182.000000  0   -5783692.588  -1524678.366  -3426229.530
10 0 59863  19302.000000  0   -6212229.250  -1439513.376  -2615467.731
10 0 59863  19422.000000  0   -6530682.766  -1322711.043  -1758779.287
10 0 59863  19542.000000  0   -6732876.273  -1178267.299   -871179.632
10 0 59863  19662.000000  0   -6814746.176  -1010757.913     31742.078
10 0 59863  19782.000000  0   -6774431.782   -825220.457    934103.237
10 0 59863  19902.000000  0   -6612321.066   -627026.676   1820015.278
10 0 59863  20022.000000  0   -6331051.017   -421747.982   2673872.643
10 0 59863  20142.000000  0   -5935462.640   -215017.088   3480636.442
10 0 59863  20262.000000  0   -5432510.990    -12389.358   4226106.635
10 0 59863  20382.000000  0   -4831133.080    180791.549   4897175.892
10 0 59863  20502.000000  0   -4142078.695    359521.292   5482059.949
10 0 59863  20622.000000  0   -3377709.153    519253.000   5970502.251
10 0 59863  20742.000000  0   -2551766.547    656002.345   6353949.949
10 0 59863  20862.000000  0   -1679119.961    766437.696   6625698.195
10 0 59863  20982.000000  0    -775492.613    847954.790   6781001.557
10 0 59863  21102.000000  0     142823.165    898733.466   6817150.549
10 0 59863  21222.000000  0    1059259.012    917775.751   6733515.443
10 0 59863  21342.000000  0    1957268.234    904925.370   6531556.670
10 0 59863  21462.000000  0    2820623.555    860867.798   6214801.101
10 0 59863  21582.000000  0    3633711.062    787110.797   5788785.099
10 0 59863  21702.000000  0    4381815.481    685946.065   5260962.619
10 0 59863  21822.000000  0    5051390.523    560392.160   4640581.093
10 0 59863  21942.000000  0    5630312.128    414119.411   3938526.100
10 0 59863  22062.000000  0    6108108.322    251359.834   3167133.533
10 0 59863  22182.000000  0    6476158.751     76803.264   2339972.606
10 0 59863  22302.000000  0    6727858.948   -104519.799   1471605.400
10 0 59863  22422.000000  0    6858747.753   -287364.002    577325.938
10 0 59863  22542.000000  0    6866591.744   -466400.154   -327116.583
10 0 59863  22662.000000  0    6751424.901   -636349.658  -1225804.725
10 0 59863  22782.000000  0    6515541.652   -792118.008  -2102941.653
10 0 59863  22902.000000  0    6163444.558   -928923.751  -2943136.377
99
